1 45745U 20038R   23110.74653983 -.00018537  00000-0 -12302-2 0  9996
2 45745  53.0522 287.9481 0001178  86.8687 273.2437 15.06357852157332
1 45745U 20038R   23110.81289514  .00015716  00000-0  10735-2 0  9991
2 45745  53.0528 287.6510 0000988  91.8664 268.2438 15.06333483158270
1 45745U 20038R   23111.21099231  .00019397  00000-0  13195-2 0  9993
2 45745  53.0528 285.8636 0001006  92.8143 267.2961 15.06343548157401
1 45745U 20038R   23111.87447618  .00022869  00000-0  15502-2 0  9993
2 45745  53.0532 282.8851 0000962  87.7611 272.3489 15.06375706157509
1 45745U 20038R   23111.87447618  .00022869  00000-0  15502-2 0  9993
2 45745  53.0532 282.8851 0000962  87.7611 272.3489 15.06375706158432
1 45745U 20038R   23112.20620866  .00032781  00000-0  22089-2 0  9991
2 45745  53.0531 281.3970 0001130  68.2142 291.8967 15.06408069157556
1 45745U 20038R   23113.46678754  .00023517  00000-0  15904-2 0  9994
2 45745  53.0540 275.7365 0000902  80.9790 279.1301 15.06446466157742
1 45745U 20038R   23114.13023539 -.00019490  00000-0 -12926-2 0  9992
2 45745  53.0544 272.7590 0000924 179.9563 180.1426 15.06414880158772
1 45745U 20038R   23114.26293305  .00060204  00000-0  40196-2 0  9993
2 45745  53.0539 272.1619 0000954 103.9277 256.1818 15.06461882157866
1 45745U 20038R   23114.26293305  .00060204  00000-0  40196-2 0  9993
2 45745  53.0539 272.1619 0000954 103.9277 256.1818 15.06461882158799
1 45745U 20038R   23114.92639757  .00029319  00000-0  19778-2 0  9995
2 45745  53.0543 269.1832 0000912 105.4826 254.6264 15.06422719157960
1 45745U 20038R   23114.92639757  .00029319  00000-0  19778-2 0  9995
2 45745  53.0543 269.1832 0000912 105.4826 254.6264 15.06422719158893
1 45745U 20038R   23116.51876592  .00035107  00000-0  23681-2 0  9992
2 45745  53.0519 262.0359 0001598 102.9246 257.1921 15.06335904158203
1 45745U 20038R   23116.78415944  .00012463  00000-0  85486-3 0  9993
2 45745  53.0532 260.8420 0001819 120.2983 239.8186 15.06365877158246
1 45745U 20038R   23117.11589903  .00013740  00000-0  94009-3 0  9998
2 45745  53.0517 259.3519 0001190 120.4768 239.6338 15.06376072159221
1 45745U 20038R   23117.38129014  .00013558  00000-0  92778-3 0  9998
2 45745  53.0521 258.1629 0001151 113.3842 246.7268 15.06382904158339
1 45745U 20038R   23118.50918282  .00014115  00000-0  96411-3 0  9994
2 45745  53.0526 253.0999 0001152 100.3667 259.7452 15.06417415158504
1 45745U 20038R   23118.50918282  .00014115  00000-0  96411-3 0  9994
2 45745  53.0526 253.0999 0001152 100.3667 259.7452 15.06417415159437
1 45745U 20038R   23119.50435841  .00018436  00000-0  12514-2 0  9991
2 45745  53.0521 248.6328 0001172  75.4146 284.6973 15.06457073159589
1 45745U 20038R   23119.57070224  .00019859  00000-0  13461-2 0  9990
2 45745  53.0531 248.3356 0001396  86.2615 273.8533 15.06461434158663
1 45745U 20038R   23119.76973211  .00022271  00000-0  15063-2 0  9991
2 45745  53.0521 247.4409 0001226  77.2005 282.9121 15.06474852159625
1 45745U 20038R   23120.49956000  .00007672  00000-0  53369-3 0  9990
2 45745  53.0531 244.1647 0001089  48.5769 311.5313 15.06377974158807
1 45745U 20038R   23120.49956000  .00007672  00000-0  53369-3 0  9990
2 45745  53.0531 244.1647 0001089  48.5769 311.5313 15.06377974159730
1 45745U 20038R   23120.83129633  .00023616  00000-0  15997-2 0  9992
2 45745  53.0527 242.6758 0001149 111.6761 248.4351 15.06384703159785
1 45745U 20038R   23121.56111070  .00015838  00000-0  10795-2 0  9997
2 45745  53.0524 239.3997 0001172 107.7822 252.3295 15.06409897158962
1 45745U 20038R   23121.69380212  .00018059  00000-0  12276-2 0  9991
2 45745  53.0527 238.8036 0001178 109.2436 250.8681 15.06417262158986
1 45745U 20038R   23121.69380212  .00018059  00000-0  12276-2 0  9991
2 45745  53.0527 238.8036 0001178 109.2436 250.8681 15.06417262159910
1 45745U 20038R   23122.55631814  .00020939  00000-0  14204-2 0  9997
2 45745  53.0527 234.9317 0001102 108.0843 252.0266 15.06400389160046
1 45745U 20038R   23122.68901173  .00010523  00000-0  72423-3 0  9995
2 45745  53.0527 234.3359 0001184 103.9449 256.1672 15.06402371159139
1 45745U 20038R   23123.02074594  .00014013  00000-0  95758-3 0  9996
2 45745  53.0526 232.8475 0001199  97.2964 262.8161 15.06407130160118
1 45745U 20038R   23123.55151247  .00017305  00000-0  11769-2 0  9991
2 45745  53.0531 230.4641 0001277  94.1296 265.9839 15.06428209159264
1 45745U 20038R   23123.68420248  .00018542  00000-0  12592-2 0  9994
2 45745  53.0534 229.8680 0001286  93.8768 266.2368 15.06435253159282
1 45745U 20038R   23124.01594108  .00000356  00000-0  42817-4 0  9998
2 45745  53.0538 228.3785 0001712  81.1447 278.9735 15.06407202160265
1 45745U 20038R   23124.54672003  .00019579  00000-0  13299-2 0  9994
2 45745  53.0531 225.9973 0001442  71.4442 288.6703 15.06393207160348
1 45745U 20038R   23124.67941447  .00024488  00000-0  16574-2 0  9993
2 45745  53.0532 225.4019 0001434  67.6950 292.4191 15.06395066159434
1 45745U 20038R   23125.54190929  .00024243  00000-0  16390-2 0  9996
2 45745  53.0536 221.5294 0001397  71.1056 289.0084 15.06441463159565
1 45745U 20038R   23125.54190929  .00024243  00000-0  16390-2 0  9996
2 45745  53.0536 221.5294 0001397  71.1056 289.0084 15.06441463160499
1 45745U 20038R   23126.47077019  .00030238  00000-0  20406-2 0  9997
2 45745  53.0532 217.3605 0001186  63.8687 296.2424 15.06393188159708
1 45745U 20038R   23126.93519696  .00029739  00000-0  20062-2 0  9992
2 45745  53.0529 215.2742 0001185  51.4971 308.6124 15.06414810160704
1 45745U 20038R   23127.46596154  .00019045  00000-0  12929-2 0  9997
2 45745  53.0535 212.8920 0001224  88.5303 271.5826 15.06431945159855
1 45745U 20038R   23127.46596154  .00019045  00000-0  12929-2 0  9997
2 45745  53.0535 212.8920 0001224  88.5303 271.5826 15.06431945160789
1 45745U 20038R   23128.46111946  .00025802  00000-0  17406-2 0  9993
2 45745  53.0521 208.4248 0001283  81.9716 278.1419 15.06488009160939
1 45745U 20038R   23128.52746245  .00023971  00000-0  16188-2 0  9997
2 45745  53.0521 208.1270 0001288  80.9977 279.1158 15.06489195160011
1 45745U 20038R   23129.52258523  .00026715  00000-0  17987-2 0  9992
2 45745  53.0515 203.6587 0001265  81.2678 278.8454 15.06541696161091
1 45745U 20038R   23130.51767637  .00028270  00000-0  18994-2 0  9991
2 45745  53.0513 199.1904 0001312  71.9782 288.1350 15.06590976160314
1 45745U 20038R   23130.91571255  .00019410  00000-0  13119-2 0  9994
2 45745  53.0525 197.3949 0001443 116.3242 243.7895 15.06582647161303
1 45745U 20038R   23131.57923740  .00015488  00000-0  10603-2 0  9993
2 45745  53.0521 194.4264 0001341 119.8932 240.2190 15.06262299160473
1 45745U 20038R   23131.57923740  .00015488  00000-0  10603-2 0  9993
2 45745  53.0521 194.4264 0001341 119.8932 240.2190 15.06262299161407
1 45745U 20038R   23131.64557861 -.00050272  00000-0 -33879-2 0  9990
2 45745  53.0522 194.1286 0001388 108.9892 251.1248 15.06313136160483
1 45745U 20038R   23131.64557861 -.00050272  00000-0 -33879-2 0  9990
2 45745  53.0522 194.1286 0001388 108.9892 251.1248 15.06313136161417
1 45745U 20038R   23132.64091184  .00012102  00000-0  83366-3 0  9997
2 45745  53.0524 189.6600 0001458 110.1429 249.9717 15.06234422160636
1 45745U 20038R   23132.64091184  .00012102  00000-0  83366-3 0  9997
2 45745  53.0524 189.6600 0001458 110.1429 249.9717 15.06234422161569
1 45745U 20038R   23133.50350826  .00016021  00000-0  10961-2 0  9998
2 45745  53.0532 185.7876 0001344  71.4455 288.6680 15.06260994160765
1 45745U 20038R   23133.83527104  .00014164  00000-0  97120-3 0  9998
2 45745  53.0531 184.2988 0001381  69.2509 290.8628 15.06270556160816
1 45745U 20038R   23133.83527104  .00014164  00000-0  97120-3 0  9998
2 45745  53.0531 184.2988 0001381  69.2509 290.8628 15.06270556161749
1 45745U 20038R   23134.10066230  .00026760  00000-0  18127-2 0  9991
2 45745  53.0536 183.1054 0001304  90.4469 269.6669 15.06315454161782
1 45745U 20038R   23134.49875854  .00026201  00000-0  17736-2 0  9998
2 45745  53.0537 181.3224 0001548  48.9108 311.2014 15.06352357160915
1 45745U 20038R   23134.49875854  .00026201  00000-0  17736-2 0  9998
2 45745  53.0537 181.3224 0001548  48.9108 311.2014 15.06352357161848
1 45745U 20038R   23134.83050163  .00019701  00000-0  13392-2 0  9995
2 45745  53.0532 179.8321 0001407  59.5139 300.5988 15.06361839160967
1 45745U 20038R   23134.96319867  .00020735  00000-0  14081-2 0  9993
2 45745  53.0533 179.2368 0001422  58.8386 301.2743 15.06366500161919
1 45745U 20038R   23135.49397951  .00020037  00000-0  13606-2 0  9999
2 45745  53.0530 176.8538 0001538  60.9279 299.1864 15.06388954161063
1 45745U 20038R   23136.09110114  .00013509  00000-0  92383-3 0  9996
2 45745  53.0530 174.1724 0001969  57.4316 302.6863 15.06408861162084
1 45745U 20038R   23136.42283237  .00010337  00000-0  71171-3 0  9998
2 45745  53.0527 172.6832 0001552  61.7318 298.3827 15.06407856161208
1 45745U 20038R   23136.82090864  .00007595  00000-0  52805-3 0  9999
2 45745  53.0529 170.8959 0001498  68.3079 291.8069 15.06414216162199
1 45745U 20038R   23137.81610085  .00001467  00000-0  11731-3 0  9997
2 45745  53.0520 166.4274 0001948  74.3624 285.7580 15.06412064161417
1 45745U 20038R   23138.08148752  .00000158  00000-0  29526-4 0  9992
2 45745  53.0527 165.2376 0001611  69.7632 290.3530 15.06409086162382
1 45745U 20038R   23138.34687460 -.00000949  00000-0 -44836-4 0  9996
2 45745  53.0532 164.0462 0001395  71.7361 288.3780 15.06404101161490
1 45745U 20038R   23139.40841692 -.00000097  00000-0  12416-4 0  9995
2 45745  53.0536 159.2788 0001426  79.8289 280.2861 15.06410700162588
1 45745U 20038R   23139.74015415 -.00001203  00000-0 -61869-4 0  9995
2 45745  53.0539 157.7906 0001395  75.9820 284.1324 15.06405426161708
1 45745U 20038R   23139.74015415 -.00001203  00000-0 -61869-4 0  9995
2 45745  53.0539 157.7906 0001395  75.9820 284.1324 15.06405426162631
1 45745U 20038R   23140.07189186  .00000882  00000-0  78082-4 0  9995
2 45745  53.0538 156.3011 0001481  72.6840 287.4311 15.06395505162687
